CCSDS_OMM_VERS = 2.0
CREATION_DATE  = 
ORIGINATOR     = 

OBJECT_NAME    = SL-16 R/B
OBJECT_ID      = 1992-093B
CENTER_NAME    = EARTH
REF_FRAME      = TEME
TIME_SYSTEM    = UTC
MEAN_ELEMENT_THEORY = SGP/SGP4

EPOCH          = 2025-11-04T07:10:26.521248
MEAN_MOTION    = 14.15418086
ECCENTRICITY   = .0003352
INCLINATION    = 71.0201
RA_OF_ASC_NODE = 267.4876
ARG_OF_PERICENTER = 170.1709
MEAN_ANOMALY   = 189.9480

EPHEMERIS_TYPE = 0
CLASSIFICATION_TYPE = U
NORAD_CAT_ID   = 22285
ELEMENT_SET_NO = 999
REV_AT_EPOCH   = 69541
BSTAR          = .63513E-4
MEAN_MOTION_DOT = .76E-6
MEAN_MOTION_DDOT = 0

CCSDS_OMM_VERS = 2.0
CREATION_DATE  = 
ORIGINATOR     = 

OBJECT_NAME    = COSMOS 2228
OBJECT_ID      = 1992-094A
CENTER_NAME    = EARTH
REF_FRAME      = TEME
TIME_SYSTEM    = UTC
MEAN_ELEMENT_THEORY = SGP/SGP4

EPOCH          = 2025-11-04T10:42:54.308160
MEAN_MOTION    = 14.96468000
ECCENTRICITY   = .0018158
INCLINATION    = 82.5202
RA_OF_ASC_NODE = 357.1689
ARG_OF_PERICENTER = 8.8617
MEAN_ANOMALY   = 351.2922

EPHEMERIS_TYPE = 0
CLASSIFICATION_TYPE = U
NORAD_CAT_ID   = 22286
ELEMENT_SET_NO = 999
REV_AT_EPOCH   = 75732
BSTAR          = .18102E-3
MEAN_MOTION_DOT = .2086E-4
MEAN_MOTION_DDOT = 0

CCSDS_OMM_VERS = 2.0
CREATION_DATE  = 
ORIGINATOR     = 

OBJECT_NAME    = SL-16 R/B
OBJECT_ID      = 1993-016B
CENTER_NAME    = EARTH
REF_FRAME      = TEME
TIME_SYSTEM    = UTC
MEAN_ELEMENT_THEORY = SGP/SGP4

EPOCH          = 2025-11-04T11:14:13.070976
MEAN_MOTION    = 14.15278516
ECCENTRICITY   = .0009474
INCLINATION    = 71.0049
RA_OF_ASC_NODE = 118.1818
ARG_OF_PERICENTER = 167.1025
MEAN_ANOMALY   = 193.0342

EPHEMERIS_TYPE = 0
CLASSIFICATION_TYPE = U
NORAD_CAT_ID   = 22566
ELEMENT_SET_NO = 999
REV_AT_EPOCH   = 68445
BSTAR          = -.66521E-4
MEAN_MOTION_DOT = -.177E-5
MEAN_MOTION_DDOT = 0

CCSDS_OMM_VERS = 2.0
CREATION_DATE  = 
ORIGINATOR     = 

OBJECT_NAME    = COSMOS 2242
OBJECT_ID      = 1993-024A
CENTER_NAME    = EARTH
REF_FRAME      = TEME
TIME_SYSTEM    = UTC
MEAN_ELEMENT_THEORY = SGP/SGP4

EPOCH          = 2025-11-04T07:25:37.394112
MEAN_MOTION    = 14.95866645
ECCENTRICITY   = .0016606
INCLINATION    = 82.5224
RA_OF_ASC_NODE = 26.5644
ARG_OF_PERICENTER = 12.3282
MEAN_ANOMALY   = 347.8343

EPHEMERIS_TYPE = 0
CLASSIFICATION_TYPE = U
NORAD_CAT_ID   = 22626
ELEMENT_SET_NO = 999
REV_AT_EPOCH   = 76164
BSTAR          = .22675E-3
MEAN_MOTION_DOT = .2566E-4
MEAN_MOTION_DDOT = 0

CCSDS_OMM_VERS = 2.0
CREATION_DATE  = 
ORIGINATOR     = 

OBJECT_NAME    = SL-16 R/B
OBJECT_ID      = 1993-059B
CENTER_NAME    = EARTH
REF_FRAME      = TEME
TIME_SYSTEM    = UTC
MEAN_ELEMENT_THEORY = SGP/SGP4

EPOCH          = 2025-11-04T08:02:55.693248
MEAN_MOTION    = 14.17202145
ECCENTRICITY   = .0015694
INCLINATION    = 70.9891
RA_OF_ASC_NODE = 275.4684
ARG_OF_PERICENTER = 34.5309
MEAN_ANOMALY   = 325.6831

EPHEMERIS_TYPE = 0
CLASSIFICATION_TYPE = U
NORAD_CAT_ID   = 22803
ELEMENT_SET_NO = 999
REV_AT_EPOCH   = 66177
BSTAR          = -.50196E-4
MEAN_MOTION_DOT = -.149E-5
MEAN_MOTION_DDOT = 0

CCSDS_OMM_VERS = 2.0
CREATION_DATE  = 
ORIGINATOR     = 

OBJECT_NAME    = ARIANE 40 R/B
OBJECT_ID      = 1993-061H
CENTER_NAME    = EARTH
REF_FRAME      = TEME
TIME_SYSTEM    = UTC
MEAN_ELEMENT_THEORY = SGP/SGP4

EPOCH          = 2025-11-04T10:03:12.192768
MEAN_MOTION    = 14.32764021
ECCENTRICITY   = .0009655
INCLINATION    = 98.5123
RA_OF_ASC_NODE = 14.6379
ARG_OF_PERICENTER = 297.5034
MEAN_ANOMALY   = 62.5169

EPHEMERIS_TYPE = 0
CLASSIFICATION_TYPE = U
NORAD_CAT_ID   = 22830
ELEMENT_SET_NO = 999
REV_AT_EPOCH   = 67616
BSTAR          = .11992E-3
MEAN_MOTION_DOT = .283E-5
MEAN_MOTION_DDOT = 0

CCSDS_OMM_VERS = 2.0
CREATION_DATE  = 
ORIGINATOR     = 

OBJECT_NAME    = COSMOS 2278
OBJECT_ID      = 1994-023A
CENTER_NAME    = EARTH
REF_FRAME      = TEME
TIME_SYSTEM    = UTC
MEAN_ELEMENT_THEORY = SGP/SGP4

EPOCH          = 2025-11-04T11:39:20.571264
MEAN_MOTION    = 14.14331511
ECCENTRICITY   = .0010397
INCLINATION    = 71.0520
RA_OF_ASC_NODE = 77.0399
ARG_OF_PERICENTER = 228.7153
MEAN_ANOMALY   = 131.3075

EPHEMERIS_TYPE = 0
CLASSIFICATION_TYPE = U
NORAD_CAT_ID   = 23087
ELEMENT_SET_NO = 999
REV_AT_EPOCH   = 62710
BSTAR          = .60243E-4
MEAN_MOTION_DOT = .68E-6
MEAN_MOTION_DDOT = 0

CCSDS_OMM_VERS = 2.0
CREATION_DATE  = 
ORIGINATOR     = 

OBJECT_NAME    = SL-16 R/B
OBJECT_ID      = 1994-023B
CENTER_NAME    = EARTH
REF_FRAME      = TEME
TIME_SYSTEM    = UTC
MEAN_ELEMENT_THEORY = SGP/SGP4

EPOCH          = 2025-11-04T10:45:11.736000
MEAN_MOTION    = 14.14992995
ECCENTRICITY   = .000188
INCLINATION    = 71.0009
RA_OF_ASC_NODE = 333.9025
ARG_OF_PERICENTER = 176.9584
MEAN_ANOMALY   = 183.1550

EPHEMERIS_TYPE = 0
CLASSIFICATION_TYPE = U
NORAD_CAT_ID   = 23088
ELEMENT_SET_NO = 999
REV_AT_EPOCH   = 62837
BSTAR          = .20915E-4
MEAN_MOTION_DOT = -.7E-7
MEAN_MOTION_DDOT = 0

CCSDS_OMM_VERS = 2.0
CREATION_DATE  = 
ORIGINATOR     = 

OBJECT_NAME    = SL-16 R/B
OBJECT_ID      = 1994-074B
CENTER_NAME    = EARTH
REF_FRAME      = TEME
TIME_SYSTEM    = UTC
MEAN_ELEMENT_THEORY = SGP/SGP4

EPOCH          = 2025-11-04T09:06:29.065248
MEAN_MOTION    = 14.79220951
ECCENTRICITY   = .0005107
INCLINATION    = 97.7254
RA_OF_ASC_NODE = 339.1993
ARG_OF_PERICENTER = 269.5537
MEAN_ANOMALY   = 101.0935

EPHEMERIS_TYPE = 0
CLASSIFICATION_TYPE = U
NORAD_CAT_ID   = 23343
ELEMENT_SET_NO = 999
REV_AT_EPOCH   = 66872
BSTAR          = .82775E-4
MEAN_MOTION_DOT = .565E-5
MEAN_MOTION_DDOT = 0

CCSDS_OMM_VERS = 2.0
CREATION_DATE  = 
ORIGINATOR     = 

OBJECT_NAME    = SL-16 R/B
OBJECT_ID      = 1994-077B
CENTER_NAME    = EARTH
REF_FRAME      = TEME
TIME_SYSTEM    = UTC
MEAN_ELEMENT_THEORY = SGP/SGP4

EPOCH          = 2025-11-04T06:23:46.185792
MEAN_MOTION    = 14.15538722
ECCENTRICITY   = .000353
INCLINATION    = 70.9816
RA_OF_ASC_NODE = 256.3484
ARG_OF_PERICENTER = 315.1871
MEAN_ANOMALY   = 44.8966

EPHEMERIS_TYPE = 0
CLASSIFICATION_TYPE = U
NORAD_CAT_ID   = 23405
ELEMENT_SET_NO = 999
REV_AT_EPOCH   = 59848
BSTAR          = .81161E-4
MEAN_MOTION_DOT = .111E-5
MEAN_MOTION_DDOT = 0

CCSDS_OMM_VERS = 2.0
CREATION_DATE  = 
ORIGINATOR     = 

OBJECT_NAME    = ARIANE 40+ R/B
OBJECT_ID      = 1995-021B
CENTER_NAME    = EARTH
REF_FRAME      = TEME
TIME_SYSTEM    = UTC
MEAN_ELEMENT_THEORY = SGP/SGP4

EPOCH          = 2025-11-04T03:53:56.252832
MEAN_MOTION    = 14.39648408
ECCENTRICITY   = .00073883
INCLINATION    = 98.4697
RA_OF_ASC_NODE = 16.2095
ARG_OF_PERICENTER = 150.3437
MEAN_ANOMALY   = 263.4553

EPHEMERIS_TYPE = 0
CLASSIFICATION_TYPE = U
NORAD_CAT_ID   = 23561
ELEMENT_SET_NO = 999
REV_AT_EPOCH   = 60118
BSTAR          = .13918593E-3
MEAN_MOTION_DOT = .392E-5
MEAN_MOTION_DDOT = 0

CCSDS_OMM_VERS = 2.0
CREATION_DATE  = 
ORIGINATOR     = 

OBJECT_NAME    = SL-16 R/B
OBJECT_ID      = 1995-058B
CENTER_NAME    = EARTH
REF_FRAME      = TEME
TIME_SYSTEM    = UTC
MEAN_ELEMENT_THEORY = SGP/SGP4

EPOCH          = 2025-11-04T11:30:10.121184
MEAN_MOTION    = 14.15473661
ECCENTRICITY   = .001437
INCLINATION    = 71.0207
RA_OF_ASC_NODE = 83.1280
ARG_OF_PERICENTER = 304.9665
MEAN_ANOMALY   = 55.0108

EPHEMERIS_TYPE = 0
CLASSIFICATION_TYPE = U
NORAD_CAT_ID   = 23705
ELEMENT_SET_NO = 999
REV_AT_EPOCH   = 55013
BSTAR          = .15475E-3
MEAN_MOTION_DOT = .255E-5
MEAN_MOTION_DDOT = 0

