SL-16 R/B               
1 22285U 92093B   25308.29891807  .00000076  00000+0  63513-4 0  9998
2 22285  71.0201 267.4876 0003352 170.1709 189.9480 14.15418086695412
COSMOS 2228             
1 22286U 92094A   25308.44646190  .00002086  00000+0  18102-3 0  9996
2 22286  82.5202 357.1689 0018158   8.8617 351.2922 14.96468000757329
SL-16 R/B               
1 22566U 93016B   25308.46820684 -.00000177  00000+0 -66521-4 0  9996
2 22566  71.0049 118.1818 0009474 167.1025 193.0342 14.15278516684457
COSMOS 2242             
1 22626U 93024A   25308.30946058  .00002566  00000+0  22675-3 0  9992
2 22626  82.5224  26.5644 0016606  12.3282 347.8343 14.95866645761647
SL-16 R/B               
1 22803U 93059B   25308.33536682 -.00000149  00000+0 -50196-4 0  9995
2 22803  70.9891 275.4684 0015694  34.5309 325.6831 14.17202145661778
ARIANE 40 R/B           
1 22830U 93061H   25308.41889112  .00000283  00000+0  11992-3 0  9993
2 22830  98.5123  14.6379 0009655 297.5034  62.5169 14.32764021676165
COSMOS 2278             
1 23087U 94023A   25308.48565476  .00000068  00000+0  60243-4 0  9993
2 23087  71.0520  77.0399 0010397 228.7153 131.3075 14.14331511627100
SL-16 R/B               
1 23088U 94023B   25308.44805250 -.00000007  00000+0  20915-4 0  9993
2 23088  71.0009 333.9025 0001880 176.9584 183.1550 14.14992995628374
SL-16 R/B               
1 23343U 94074B   25308.37950307  .00000565  00000+0  82775-4 0  9999
2 23343  97.7254 339.1993 0005107 269.5537 101.0935 14.79220951668726
SL-16 R/B               
1 23405U 94077B   25308.26650678  .00000111  00000+0  81161-4 0  9992
2 23405  70.9816 256.3484 0003530 315.1871  44.8966 14.15538722598485
ARIANE 40+ R/B          
1 23561U 95021B   25308.16245663  .00000392  00000+0  13919-3 0  9994
2 23561  98.4697  16.2095 0007388 150.3437 263.4553 14.39648408601185
SL-16 R/B               
1 23705U 95058B   25308.47928381  .00000255  00000+0  15475-3 0  9990
2 23705  71.0207  83.1280 0014370 304.9665  55.0108 14.15473661550137
